INTELSAT 23 (IS-23)     
1 38867U 12057A   26196.10097943 -.00000294  00000+0  00000+0 0  9998
2 38867   0.0150  37.4174 0000378 151.4629  87.4414  1.00273430 50230
FM-6                    
1 39360U 13058A   26194.96565503 -.00000021  00000+0  00000+0 0  9991
2 39360   0.0142  33.4803 0001390 144.8411 344.7900  1.00270909 46349
INTELSAT 30 (IS-30)     
1 40271U 14062A   26196.60909404 -.00000161  00000+0  00000+0 0  9990
2 40271   0.0191  53.0115 0001350 333.2554  31.4017  1.00269383  7078
DIRECTV 14              
1 40333U 14078B   26196.51016899 -.00000135  00000+0  00000+0 0  9994
2 40333   0.0110  40.7880 0000689 304.5925  32.3918  1.00267237 42320
DIRECTV 15              
1 40663U 15026A   26195.68123920 -.00000111  00000+0  00000+0 0  9999
2 40663   0.0176  71.4979 0000099 242.5429 120.8693  1.00271323 40730
SKY MEXICO-1            
1 40664U 15026B   26196.54145126 -.00000244  00000+0  00000+0 0  9995
2 40664   0.0161  41.0040 0002387  95.2803 273.2137  1.00269990 40731
INTELSAT 34 (IS-34)     
1 40874U 15039A   26195.26286936 -.00000292  00000+0  00000+0 0  9998
2 40874   0.0110 352.6276 0000554   9.3806 329.2648  1.00271009 39903
INTELSAT 31 (IS-31)     
1 41581U 16035A   26194.89862426 -.00000156  00000+0  00000+0 0  9992
2 41581   0.0229 276.7908 0001186  13.0074 230.4271  1.00270917 36953
INTELSAT 36 (IS-36)     
1 41747U 16053A   26196.62058611 -.00000034  00000+0  00000+0 0  9997
2 41747   0.0119  35.0938 0002375 304.4272 245.8272  1.00270463 36241
INTELSAT 32E (IS-32E)   
1 41945U 17007B   26196.48794642  .00000000  00000+0  00000+0 0  9994
2 41945   0.0238  56.5419 0000260 287.6584  81.6180  1.00266311 34502
INTELSAT 35E (IS-35E)   
1 42818U 17041A   26196.55183711  .00000000  00000+0  00000+0 0  9999
2 42818   0.0261  63.1048 0001683  46.6502 347.7991  1.00266637 33105
INTELSAT 37E (IS-37E)   
1 42950U 17059A   26196.41096167 -.00000151  00000+0  00000+0 0  9996
2 42950   0.0176  46.5286 0002587  77.0427 299.6119  1.00269739 32342
AZERSPACE 2 (IS-38)     
1 43632U 18074A   26196.42335506  .00000127  00000+0  00000+0 0  9998
2 43632   0.0174  35.4767 0001265  86.0535   9.2483  1.00270992 28731
HORIZONS-3E             
1 43633U 18074B   26194.64002854 -.00000035  00000+0  00000+0 0  9997
2 43633   0.0498 224.9289 0000940  53.6947  52.2963  1.00270118 28608
AT&T T-16               
1 44333U 19034A   26195.82414432 -.00000123  00000+0  00000+0 0  9990
2 44333   0.0157  70.7114 0000616 248.2150 169.5701  1.00268430 25917
INTELSAT 39 (IS-39)     
1 44476U 19049B   26194.92525137  .00000000  00000+0  00000+0 0  9992
2 44476   0.0241  49.4551 0000733 282.1376 355.2527  1.00272225 25393
GALAXY 30 (G-30)        
1 46114U 20056C   26196.60363400  .00000027  00000+0  00000+0 0  9992
2 46114   0.0141  59.9575 0001999  55.8237 269.9665  1.00271927 21579
GALAXY 33 (G-33)        
1 54026U 22128A   26196.60198734  .00000069  00000+0  00000+0 0  9997
2 54026   0.0105  50.1719 0001804  70.4578 256.5328  1.00272422 14020
GALAXY 34 (G-34)        
1 54027U 22128B   26196.60285400  .00000048  00000+0  00000+0 0  9992
2 54027   0.0123  37.6319 0001495  90.8767 252.9656  1.00276371 14198
GALAXY 31 (G-31)        
1 54243U 22153A   26196.60441402  .00000003  00000+0  00000+0 0  9997
2 54243   0.0140  80.0443 0000994  39.6493 270.3230  1.00271275  7414
GALAXY 32 (G-32)        
1 54244U 22153B   26196.11128894 -.00000183  00000+0  00000+0 0  9991
2 54244   0.0090  48.1859 0001428   1.0380 192.7879  1.00269870 13428
GALAXY 35 (G-35)        
1 54741U 22170A   26196.60987404 -.00000172  00000+0  00000+0 0  9994
2 54741   0.0172  72.5640 0001762  44.1053 303.2186  1.00272224 13175
GALAXY 36 (G-36)        
1 54742U 22170B   26196.50461409 -.00000195  00000+0  00000+0 0  9991
2 54742   0.0074 142.3679 0002399 317.1370 286.4976  1.00270259 13059
GALAXY 37 (G-37)        
1 57493U 23112A   26194.96357502  .00000042  00000+0  00000+0 0  9990
2 57493   0.0218  73.5270 0001739  44.1230  34.0616  1.00271325 10810
